{
  "norad_id": 63802,
  "name": "STARLINK-33975",
  "history": [
    {
      "epoch": "2026-03-28T21:35:31.890624Z",
      "apogee_km": 484.02501816462154,
      "perigee_km": 481.95460453802843,
      "latitude_deg": 6.009947335562708e-06,
      "longitude_deg": 153.53363307385777,
      "height_km": 482.64374511161594,
      "semi_major_axis_km": 6861.126811351324,
      "eccentricity": 0.00015088,
      "inclination_deg": 43.0004,
      "raan_deg": 303.73,
      "arg_perigee_deg": 276.8187,
      "mean_anomaly_deg": 83.2493,
      "mean_motion_rev_day": 15.27599799
    }
  ]
}